{"type": "FeatureCollection", "features": [ {"type": "Feature", "properties": {"norad_id": 42741, "name": "EUTELSAT 172B", "group": "eutelsat", "lat": -0.01679418586663368, "lon": -19.956216739099386, "alt_km": 35786.43431576443, "timestamp": "2025-12-12T05:47:28.443515+00:00", "meta": {"OBJECT_NAME": "EUTELSAT 172B", "OBJECT_ID": "2017-029B", "EPOCH": "2025-12-11T21:10:38.515008", "MEAN_MOTION": 1.00269803, "ECCENTRICITY": 5.68e-06, "INCLINATION": 0.0365, "RA_OF_ASC_NODE": 150.651, "ARG_OF_PERICENTER": 154.042, "MEAN_ANOMALY": 265.7964, "EPHEMERIS_TYPE": 0, "CLASSIFICATION_TYPE": "U", "NORAD_CAT_ID": 42741, "ELEMENT_SET_NO": 999, "REV_AT_EPOCH": 3185, "BSTAR": 0, "MEAN_MOTION_DOT": 2e-08, "MEAN_MOTION_DDOT": 0}, "tle": {"line1": "1 42741U 17029B   25345.88239022  .00000002  00000+0  00000+0 0  9990", "line2": "2 42741   0.0365 150.6510 0000056 154.0420 265.7964  1.00269803 31854"}}, "geometry": {"type": "Point", "coordinates": [-19.956216739099386, -0.01679418586663368]}}, {"type": "Feature", "properties": {"norad_id": 44334, "name": "EUTELSAT 7C", "group": "eutelsat", "lat": -0.013425651782363815, "lon": 175.00208924556392, "alt_km": 35781.17307685112, "timestamp": "2025-12-12T05:47:28.443527+00:00", "meta": {"OBJECT_NAME": "EUTELSAT 7C", "OBJECT_ID": "2019-034B", "EPOCH": "2025-12-11T22:06:18.182592", "MEAN_MOTION": 1.00271492, "ECCENTRICITY": 0.00032671, "INCLINATION": 0.0722, "RA_OF_ASC_NODE": 178.2592, "ARG_OF_PERICENTER": 65.5701, "MEAN_ANOMALY": 175.605, "EPHEMERIS_TYPE": 0, "CLASSIFICATION_TYPE": "U", "NORAD_CAT_ID": 44334, "ELEMENT_SET_NO": 999, "REV_AT_EPOCH": 495, "BSTAR": 0, "MEAN_MOTION_DOT": 5.7e-07, "MEAN_MOTION_DDOT": 0}, "tle": {"line1": "1 44334U 19034B   25345.92104378  .00000057  00000+0  00000+0 0  9998", "line2": "2 44334   0.0722 178.2592 0003267  65.5701 175.6050  1.00271492  4955"}}, "geometry": {"type": "Point", "coordinates": [175.00208924556392, -0.013425651782363815]}}, {"type": "Feature", "properties": {"norad_id": 44624, "name": "EUTELSAT 5 WEST B", "group": "eutelsat", "lat": 0.003385742882740968, "lon": 163.01370777630777, "alt_km": 35788.22777659355, "timestamp": "2025-12-12T05:47:28.443539+00:00", "meta": {"OBJECT_NAME": "EUTELSAT 5 WEST B", "OBJECT_ID": "2019-067A", "EPOCH": "2025-12-11T22:02:56.005728", "MEAN_MOTION": 1.00271734, "ECCENTRICITY": 0.00033829, "INCLINATION": 0.0624, "RA_OF_ASC_NODE": 347.7263, "ARG_OF_PERICENTER": 273.9172, "MEAN_ANOMALY": 144.961, "EPHEMERIS_TYPE": 0, "CLASSIFICATION_TYPE": "U", "NORAD_CAT_ID": 44624, "ELEMENT_SET_NO": 999, "REV_AT_EPOCH": 2255, "BSTAR": 0, "MEAN_MOTION_DOT": -3.4e-07, "MEAN_MOTION_DDOT": 0}, "tle": {"line1": "1 44624U 19067A   25345.91870377 -.00000034  00000+0  00000+0 0  9990", "line2": "2 44624   0.0624 347.7263 0003382 273.9172 144.9610  1.00271734 22557"}}, "geometry": {"type": "Point", "coordinates": [163.01370777630777, 0.003385742882740968]}}, {"type": "Feature", "properties": {"norad_id": 45027, "name": "EUTELSAT KONNECT", "group": "eutelsat", "lat": 0.06208066818632901, "lon": 175.22502415181123, "alt_km": 35789.04424421389, "timestamp": "2025-12-12T05:47:28.443551+00:00", "meta": {"OBJECT_NAME": "EUTELSAT KONNECT", "OBJECT_ID": "2020-005B", "EPOCH": "2025-12-11T22:06:18.182592", "MEAN_MOTION": 1.00269952, "ECCENTRICITY": 0.00016038, "INCLINATION": 0.0711, "RA_OF_ASC_NODE": 96.1171, "ARG_OF_PERICENTER": 190.7654, "MEAN_ANOMALY": 132.7585, "EPHEMERIS_TYPE": 0, "CLASSIFICATION_TYPE": "U", "NORAD_CAT_ID": 45027, "ELEMENT_SET_NO": 999, "REV_AT_EPOCH": 2245, "BSTAR": 0, "MEAN_MOTION_DOT": 5.8e-07, "MEAN_MOTION_DDOT": 0}, "tle": {"line1": "1 45027U 20005B   25345.92104378  .00000058  00000+0  00000+0 0  9999", "line2": "2 45027   0.0711  96.1171 0001603 190.7654 132.7585  1.00269952 22454"}}, "geometry": {"type": "Point", "coordinates": [175.22502415181123, 0.06208066818632901]}}, {"type": "Feature", "properties": {"norad_id": 49056, "name": "EUTELSAT QUANTUM", "group": "eutelsat", "lat": -0.012013480500861972, "lon": -144.28248810613817, "alt_km": 35777.69947538711, "timestamp": "2025-12-12T05:47:28.443562+00:00", "meta": {"OBJECT_NAME": "EUTELSAT QUANTUM", "OBJECT_ID": "2021-069B", "EPOCH": "2025-12-11T20:35:11.907744", "MEAN_MOTION": 1.00272243, "ECCENTRICITY": 0.00036556, "INCLINATION": 0.0202, "RA_OF_ASC_NODE": 34.154, "ARG_OF_PERICENTER": 239.6136, "MEAN_ANOMALY": 163.5431, "EPHEMERIS_TYPE": 0, "CLASSIFICATION_TYPE": "U", "NORAD_CAT_ID": 49056, "ELEMENT_SET_NO": 999, "REV_AT_EPOCH": 1604, "BSTAR": 0, "MEAN_MOTION_DOT": 1.34e-06, "MEAN_MOTION_DDOT": 0}, "tle": {"line1": "1 49056U 21069B   25345.85777671  .00000134  00000+0  00000+0 0  9995", "line2": "2 49056   0.0202  34.1540 0003655 239.6136 163.5431  1.00272243 16041"}}, "geometry": {"type": "Point", "coordinates": [-144.28248810613817, -0.012013480500861972]}}, {"type": "Feature", "properties": {"norad_id": 53765, "name": "EUTELSAT KONNECT VHTS", "group": "eutelsat", "lat": 0.05329890598375759, "lon": 170.74805896882307, "alt_km": 35781.91694916294, "timestamp": "2025-12-12T05:47:28.443574+00:00", "meta": {"OBJECT_NAME": "EUTELSAT KONNECT VHTS", "OBJECT_ID": "2022-110A", "EPOCH": "2025-12-11T22:05:03.302304", "MEAN_MOTION": 1.00272677, "ECCENTRICITY": 0.00025441, "INCLINATION": 0.0635, "RA_OF_ASC_NODE": 101.6051, "ARG_OF_PERICENTER": 137.8097, "MEAN_ANOMALY": 175.4434, "EPHEMERIS_TYPE": 0, "CLASSIFICATION_TYPE": "U", "NORAD_CAT_ID": 53765, "ELEMENT_SET_NO": 999, "REV_AT_EPOCH": 494, "BSTAR": 0, "MEAN_MOTION_DOT": 2.6e-07, "MEAN_MOTION_DDOT": 0}, "tle": {"line1": "1 53765U 22110A   25345.92017711  .00000026  00000+0  00000+0 0  9995", "line2": "2 53765   0.0635 101.6051 0002544 137.8097 175.4434  1.00272677  4943"}}, "geometry": {"type": "Point", "coordinates": [170.74805896882307, 0.05329890598375759]}}, {"type": "Feature", "properties": {"norad_id": 54048, "name": "EUTELSAT HOTBIRD 13F", "group": "eutelsat", "lat": -0.052173235301099546, "lon": -178.94503972409922, "alt_km": 35796.13836636765, "timestamp": "2025-12-12T05:47:28.443586+00:00", "meta": {"OBJECT_NAME": "EUTELSAT HOTBIRD 13F", "OBJECT_ID": "2022-134A", "EPOCH": "2025-12-11T23:36:58.233312", "MEAN_MOTION": 1.00269374, "ECCENTRICITY": 0.00022408, "INCLINATION": 0.048, "RA_OF_ASC_NODE": 293.1086, "ARG_OF_PERICENTER": 64.7327, "MEAN_ANOMALY": 90.3432, "EPHEMERIS_TYPE": 0, "CLASSIFICATION_TYPE": "U", "NORAD_CAT_ID": 54048, "ELEMENT_SET_NO": 999, "REV_AT_EPOCH": 1150, "BSTAR": 0, "MEAN_MOTION_DOT": 9.6e-07, "MEAN_MOTION_DDOT": 0}, "tle": {"line1": "1 54048U 22134A   25345.98400733  .00000096  00000+0  00000+0 0  9999", "line2": "2 54048   0.0480 293.1086 0002240  64.7327  90.3432  1.00269374 11501"}}, "geometry": {"type": "Point", "coordinates": [-178.94503972409922, -0.052173235301099546]}}, {"type": "Feature", "properties": {"norad_id": 54225, "name": "EUTELSAT HOTBIRD 13G", "group": "eutelsat", "lat": -0.04300697639649754, "lon": -178.95842259670093, "alt_km": 35778.57882546739, "timestamp": "2025-12-12T05:47:28.443597+00:00", "meta": {"OBJECT_NAME": "EUTELSAT HOTBIRD 13G", "OBJECT_ID": "2022-146A", "EPOCH": "2025-12-11T22:08:38.732928", "MEAN_MOTION": 1.00271017, "ECCENTRICITY": 0.00018323, "INCLINATION": 0.0482, "RA_OF_ASC_NODE": 234.5148, "ARG_OF_PERICENTER": 307.6546, "MEAN_ANOMALY": 243.8576, "EPHEMERIS_TYPE": 0, "CLASSIFICATION_TYPE": "U", "NORAD_CAT_ID": 54225, "ELEMENT_SET_NO": 999, "REV_AT_EPOCH": 558, "BSTAR": 0, "MEAN_MOTION_DOT": 9.6e-07, "MEAN_MOTION_DDOT": 0}, "tle": {"line1": "1 54225U 22146A   25345.92267052  .00000096  00000+0  00000+0 0  9998", "line2": "2 54225   0.0482 234.5148 0001832 307.6546 243.8576  1.00271017  5588"}}, "geometry": {"type": "Point", "coordinates": [-178.95842259670093, -0.04300697639649754]}}, {"type": "Feature", "properties": {"norad_id": 54259, "name": "EUTELSAT 10B", "group": "eutelsat", "lat": 0.04931158633613849, "lon": 178.01993952049563, "alt_km": 35786.35667415893, "timestamp": "2025-12-12T05:47:28.443609+00:00", "meta": {"OBJECT_NAME": "EUTELSAT 10B", "OBJECT_ID": "2022-157A", "EPOCH": "2025-12-11T22:07:10.598880", "MEAN_MOTION": 1.00265128, "ECCENTRICITY": 5.068e-05, "INCLINATION": 0.0597, "RA_OF_ASC_NODE": 99.6112, "ARG_OF_PERICENTER": 35.707, "MEAN_ANOMALY": 287.3212, "EPHEMERIS_TYPE": 0, "CLASSIFICATION_TYPE": "U", "NORAD_CAT_ID": 54259, "ELEMENT_SET_NO": 999, "REV_AT_EPOCH": 1114, "BSTAR": 0, "MEAN_MOTION_DOT": 7.6e-07, "MEAN_MOTION_DDOT": 0}, "tle": {"line1": "1 54259U 22157A   25345.92165045  .00000076  00000+0  00000+0 0  9994", "line2": "2 54259   0.0597  99.6112 0000506  35.7070 287.3212  1.00265128 11146"}}, "geometry": {"type": "Point", "coordinates": [178.01993952049563, 0.04931158633613849]}}, {"type": "Feature", "properties": {"norad_id": 59346, "name": "EUTELSAT 36D", "group": "eutelsat", "lat": -0.023474349191179425, "lon": -156.10932815268984, "alt_km": 35788.21002579165, "timestamp": "2025-12-12T05:47:28.443620+00:00", "meta": {"OBJECT_NAME": "EUTELSAT 36D", "OBJECT_ID": "2024-059A", "EPOCH": "2025-12-11T22:14:32.394048", "MEAN_MOTION": 1.00269358, "ECCENTRICITY": 4.243e-05, "INCLINATION": 0.0183, "RA_OF_ASC_NODE": 347.9639, "ARG_OF_PERICENTER": 2.3709, "MEAN_ANOMALY": 100.023, "EPHEMERIS_TYPE": 0, "CLASSIFICATION_TYPE": "U", "NORAD_CAT_ID": 59346, "ELEMENT_SET_NO": 999, "REV_AT_EPOCH": 627, "BSTAR": 0, "MEAN_MOTION_DOT": 0, "MEAN_MOTION_DDOT": 0}, "tle": {"line1": "1 59346U 24059A   25345.92676382  .00000000  00000+0  00000+0 0  9997", "line2": "2 59346   0.0183 347.9639 0000424   2.3709 100.0230  1.00269358  6278"}}, "geometry": {"type": "Point", "coordinates": [-156.10932815268984, -0.023474349191179425]}}]}